{"type":"FeatureCollection","source":"https://maps.ventura.org/arcgis/rest/services/DataDownloads/CommonData/MapServer/2","retrieved":"2026-09-25","features":[{"type":"Feature","geometry":{"type":"Polygon","coordinates":[[[-119.079963,34.304531],[-119.088717,34.304511],[-119.088747,34.300961],[-119.088774,34.297915],[-119.088083,34.297921],[-119.088088,34.297348],[-119.08695,34.297359],[-119.079968,34.297474],[-119.079966,34.299166],[-119.079963,34.304531]]]},"properties":{"apn":"107012013"}},{"type":"Feature","geometry":{"type":"Polygon","coordinates":[[[-119.079968,34.297471],[-119.079968,34.297474],[-119.08695,34.297359],[-119.088088,34.297348],[-119.088779,34.297341],[-119.08947,34.297334],[-119.09315,34.297298],[-119.093181,34.293677],[-119.097553,34.293635],[-119.097583,34.290016],[-119.097583,34.28742],[-119.095671,34.287772],[-119.090933,34.288643],[-119.089541,34.288898],[-119.089658,34.289133],[-119.089769,34.28937],[-119.089875,34.28961],[-119.089975,34.289853],[-119.09007,34.290097],[-119.09016,34.290344],[-119.090244,34.290593],[-119.090322,34.290843],[-119.090394,34.291096],[-119.090461,34.291349],[-119.090462,34.291388],[-119.090456,34.291426],[-119.090444,34.291462],[-119.090426,34.291496],[-119.090402,34.291526],[-119.090374,34.291552],[-119.090342,34.291573],[-119.090307,34.291589],[-119.09027,34.291598],[-119.090232,34.291601],[-119.090193,34.291598],[-119.0886,34.291511],[-119.088586,34.291511],[-119.088572,34.291513],[-119.088559,34.291517],[-119.088547,34.291523],[-119.088536,34.291531],[-119.088527,34.291541],[-119.088519,34.291553],[-119.088513,34.291565],[-119.088505,34.29164],[-119.088504,34.291714],[-119.08851,34.291789],[-119.088522,34.291863],[-119.088542,34.291935],[-119.088568,34.292005],[-119.0886,34.292073],[-119.088639,34.292137],[-119.088683,34.292197],[-119.088733,34.292253],[-119.088787,34.292304],[-119.088847,34.29235],[-119.08891,34.29239],[-119.088976,34.292425],[-119.089046,34.292453],[-119.089118,34.292474],[-119.089191,34.292489],[-119.089265,34.292496],[-119.08934,34.292497],[-119.089407,34.292507],[-119.089472,34.292523],[-119.089536,34.292543],[-119.089599,34.292569],[-119.089659,34.292599],[-119.089592,34.292729],[-119.089804,34.293088],[-119.090031,34.293339],[-119.089951,34.294007],[-119.089945,34.29402],[-119.089938,34.294032],[-119.089928,34.294043],[-119.089917,34.294052],[-119.089905,34.294059],[-119.089892,34.294064],[-119.089878,34.294066],[-119.089864,34.294067],[-119.08985,34.294065],[-119.089836,34.294061],[-119.089824,34.294055],[-119.089428,34.293824],[-119.089399,34.293801],[-119.089367,34.293783],[-119.089332,34.293771],[-119.089296,34.293765],[-119.089259,34.293764],[-119.089222,34.29377],[-119.089187,34.293782],[-119.089155,34.293799],[-119.089126,34.293822],[-119.089101,34.293849],[-119.08908,34.29388],[-119.089065,34.293913],[-119.089056,34.293949],[-119.089053,34.293986],[-119.089056,34.294023],[-119.089065,34.294058],[-119.08908,34.294092],[-119.0891,34.294123],[-119.089125,34.29415],[-119.089129,34.294156],[-119.089132,34.294163],[-119.089134,34.294171],[-119.089135,34.294178],[-119.089134,34.294186],[-119.089132,34.294193],[-119.089129,34.2942],[-119.089124,34.294206],[-119.089119,34.294212],[-119.089113,34.294216],[-119.089106,34.29422],[-119.089099,34.294222],[-119.089091,34.294223],[-119.089084,34.294222],[-119.089076,34.294221],[-119.089069,34.294218],[-119.089063,34.294214],[-119.089023,34.2942],[-119.088981,34.294193],[-119.088938,34.294194],[-119.088896,34.294201],[-119.088856,34.294215],[-119.088819,34.294236],[-119.088786,34.294263],[-119.088758,34.294294],[-119.088736,34.29433],[-119.088719,34.29437],[-119.08871,34.294411],[-119.088708,34.294454],[-119.088755,34.294703],[-119.089126,34.295179],[-119.089132,34.29519],[-119.089137,34.295202],[-119.08914,34.295215],[-119.08914,34.295228],[-119.089139,34.295242],[-119.089135,34.295254],[-119.08913,34.295266],[-119.089122,34.295277],[-119.089113,34.295287],[-119.089103,34.295295],[-119.089091,34.295301],[-119.089079,34.295305],[-119.089066,34.295307],[-119.089024,34.295322],[-119.088984,34.295342],[-119.088948,34.295367],[-119.088914,34.295397],[-119.088886,34.29543],[-119.088861,34.295468],[-119.088842,34.295508],[-119.088835,34.295517],[-119.088826,34.295524],[-119.088816,34.29553],[-119.088806,34.295535],[-119.088795,34.295538],[-119.088783,34.295539],[-119.088771,34.295538],[-119.08876,34.295535],[-119.088749,34.295531],[-119.088344,34.295335],[-119.088276,34.295306],[-119.088205,34.295283],[-119.088133,34.295267],[-119.08806,34.295257],[-119.087985,34.295253],[-119.087924,34.295255],[-119.087862,34.29526],[-119.087801,34.29527],[-119.087731,34.295276],[-119.087661,34.295275],[-119.087592,34.295268],[-119.087523,34.295254],[-119.087456,34.295233],[-119.087391,34.295206],[-119.08733,34.295172],[-119.087272,34.295133],[-119.087222,34.295107],[-119.08717,34.295087],[-119.087115,34.295074],[-119.08706,34.295068],[-119.087004,34.29507],[-119.086949,34.295078],[-119.086895,34.295093],[-119.086843,34.295115],[-119.086714,34.295169],[-119.086582,34.295217],[-119.086448,34.295259],[-119.086313,34.295295],[-119.086176,34.295324],[-119.086038,34.295348],[-119.085898,34.295365],[-119.085759,34.295377],[-119.085397,34.29529],[-119.085001,34.295246],[-119.084594,34.295083],[-119.084504,34.295006],[-119.0844,34.29486],[-119.084383,34.294843],[-119.084363,34.294828],[-119.084341,34.294818],[-119.084318,34.294811],[-119.084293,34.294808],[-119.084269,34.29481],[-119.084245,34.294816],[-119.084223,34.294826],[-119.083933,34.294983],[-119.083914,34.294992],[-119.083893,34.294997],[-119.083872,34.294999],[-119.083851,34.294997],[-119.08383,34.294992],[-119.08381,34.294984],[-119.083792,34.294973],[-119.083775,34.29496],[-119.083761,34.294944],[-119.083431,34.294421],[-119.083378,34.29435],[-119.083322,34.294283],[-119.08326,34.29422],[-119.083194,34.294162],[-119.083125,34.294108],[-119.083052,34.294059],[-119.082975,34.294016],[-119.082896,34.293978],[-119.082814,34.293945],[-119.08273,34.293919],[-119.082645,34.293898],[-119.082558,34.293883],[-119.082514,34.293873],[-119.082471,34.293858],[-119.082431,34.293837],[-119.082394,34.293811],[-119.082361,34.29378],[-119.082332,34.293745],[-119.082308,34.293707],[-119.08229,34.293666],[-119.082277,34.293623],[-119.082214,34.293255],[-119.082215,34.293251],[-119.082216,34.293247],[-119.082217,34.293243],[-119.082219,34.29324],[-119.082222,34.293236],[-119.082225,34.293234],[-119.082229,34.293232],[-119.082233,34.293231],[-119.082237,34.29323],[-119.082241,34.29323],[-119.082245,34.293231],[-119.082501,34.29327],[-119.082513,34.293073],[-119.082668,34.292714],[-119.082778,34.292647],[-119.082685,34.292495],[-119.082644,34.292164],[-119.082641,34.292111],[-119.082643,34.292057],[-119.082651,34.292005],[-119.082664,34.291953],[-119.082682,34.291903],[-119.082705,34.291855],[-119.082712,34.291825],[-119.082713,34.291793],[-119.082709,34.291762],[-119.082699,34.291732],[-119.082685,34.291704],[-119.082666,34.291679],[-119.082643,34.291657],[-119.082617,34.29164],[-119.082588,34.291627],[-119.082557,34.291619],[-119.082526,34.291617],[-119.082267,34.291587],[-119.082227,34.291581],[-119.082188,34.291569],[-119.082152,34.291551],[-119.082118,34.291529],[-119.082088,34.291501],[-119.082062,34.29147],[-119.082041,34.291435],[-119.082026,34.291397],[-119.081944,34.29108],[-119.081867,34.290978],[-119.081816,34.290759],[-119.079973,34.291096],[-119.079968,34.296585],[-119.079968,34.297471]]]},"properties":{"apn":"107012021"}},{"type":"Feature","geometry":{"type":"Polygon","coordinates":[[[-119.088749,34.295531],[-119.08876,34.295535],[-119.088771,34.295538],[-119.088783,34.295539],[-119.088795,34.295538],[-119.088806,34.295535],[-119.088816,34.29553],[-119.088826,34.295524],[-119.088835,34.295517],[-119.088842,34.295508],[-119.088861,34.295468],[-119.088886,34.29543],[-119.088914,34.295397],[-119.088948,34.295367],[-119.088984,34.295342],[-119.089024,34.295322],[-119.089066,34.295307],[-119.089079,34.295305],[-119.089091,34.295301],[-119.089103,34.295295],[-119.089113,34.295287],[-119.089122,34.295277],[-119.08913,34.295266],[-119.089135,34.295254],[-119.089139,34.295242],[-119.08914,34.295228],[-119.08914,34.295215],[-119.089137,34.295202],[-119.089132,34.29519],[-119.089126,34.295179],[-119.088755,34.294703],[-119.088708,34.294454],[-119.08871,34.294411],[-119.088719,34.29437],[-119.088736,34.29433],[-119.088758,34.294294],[-119.088786,34.294263],[-119.088819,34.294236],[-119.088856,34.294215],[-119.088896,34.294201],[-119.088938,34.294194],[-119.088981,34.294193],[-119.089023,34.2942],[-119.089063,34.294214],[-119.089069,34.294218],[-119.089076,34.294221],[-119.089084,34.294222],[-119.089091,34.294223],[-119.089099,34.294222],[-119.089106,34.29422],[-119.089113,34.294216],[-119.089119,34.294212],[-119.089124,34.294206],[-119.089129,34.2942],[-119.089132,34.294193],[-119.089134,34.294186],[-119.089135,34.294178],[-119.089134,34.294171],[-119.089132,34.294163],[-119.089129,34.294156],[-119.089125,34.29415],[-119.0891,34.294123],[-119.08908,34.294092],[-119.089065,34.294058],[-119.089056,34.294023],[-119.089053,34.293986],[-119.089056,34.293949],[-119.089065,34.293913],[-119.08908,34.29388],[-119.089101,34.293849],[-119.089126,34.293822],[-119.089155,34.293799],[-119.089187,34.293782],[-119.089222,34.29377],[-119.089259,34.293764],[-119.089296,34.293765],[-119.089332,34.293771],[-119.089367,34.293783],[-119.089399,34.293801],[-119.089428,34.293824],[-119.089824,34.294055],[-119.089836,34.294061],[-119.08985,34.294065],[-119.089864,34.294067],[-119.089878,34.294066],[-119.089892,34.294064],[-119.089905,34.294059],[-119.089917,34.294052],[-119.089928,34.294043],[-119.089938,34.294032],[-119.089945,34.29402],[-119.089951,34.294007],[-119.090031,34.293339],[-119.089804,34.293088],[-119.089592,34.292729],[-119.089659,34.292599],[-119.089599,34.292569],[-119.089536,34.292543],[-119.089472,34.292523],[-119.089407,34.292507],[-119.08934,34.292497],[-119.089265,34.292496],[-119.089191,34.292489],[-119.089118,34.292474],[-119.089046,34.292453],[-119.088976,34.292425],[-119.08891,34.29239],[-119.088847,34.29235],[-119.088787,34.292304],[-119.088733,34.292253],[-119.088683,34.292197],[-119.088639,34.292137],[-119.0886,34.292073],[-119.088568,34.292005],[-119.088542,34.291935],[-119.088522,34.291863],[-119.08851,34.291789],[-119.088504,34.291714],[-119.088505,34.29164],[-119.088513,34.291565],[-119.088519,34.291553],[-119.088527,34.291541],[-119.088536,34.291531],[-119.088547,34.291523],[-119.088559,34.291517],[-119.088572,34.291513],[-119.088586,34.291511],[-119.0886,34.291511],[-119.090193,34.291598],[-119.090232,34.291601],[-119.09027,34.291598],[-119.090307,34.291589],[-119.090342,34.291573],[-119.090374,34.291552],[-119.090402,34.291526],[-119.090426,34.291496],[-119.090444,34.291462],[-119.090456,34.291426],[-119.090462,34.291388],[-119.090461,34.291349],[-119.090394,34.291096],[-119.090322,34.290843],[-119.090244,34.290593],[-119.09016,34.290344],[-119.09007,34.290097],[-119.089975,34.289853],[-119.089875,34.28961],[-119.089769,34.28937],[-119.089658,34.289133],[-119.089541,34.288898],[-119.086729,34.289412],[-119.079973,34.290648],[-119.079973,34.291096],[-119.081816,34.290759],[-119.081867,34.290978],[-119.081944,34.29108],[-119.082026,34.291397],[-119.082041,34.291435],[-119.082062,34.29147],[-119.082088,34.291501],[-119.082118,34.291529],[-119.082152,34.291551],[-119.082188,34.291569],[-119.082227,34.291581],[-119.082267,34.291587],[-119.082526,34.291617],[-119.082557,34.291619],[-119.082588,34.291627],[-119.082617,34.29164],[-119.082643,34.291657],[-119.082666,34.291679],[-119.082685,34.291704],[-119.082699,34.291732],[-119.082709,34.291762],[-119.082713,34.291793],[-119.082712,34.291825],[-119.082705,34.291855],[-119.082682,34.291903],[-119.082664,34.291953],[-119.082651,34.292005],[-119.082643,34.292057],[-119.082641,34.292111],[-119.082644,34.292164],[-119.082685,34.292495],[-119.082778,34.292647],[-119.082668,34.292714],[-119.082513,34.293073],[-119.082501,34.29327],[-119.082245,34.293231],[-119.082241,34.29323],[-119.082237,34.29323],[-119.082233,34.293231],[-119.082229,34.293232],[-119.082225,34.293234],[-119.082222,34.293236],[-119.082219,34.29324],[-119.082217,34.293243],[-119.082216,34.293247],[-119.082215,34.293251],[-119.082214,34.293255],[-119.082277,34.293623],[-119.08229,34.293666],[-119.082308,34.293707],[-119.082332,34.293745],[-119.082361,34.29378],[-119.082394,34.293811],[-119.082431,34.293837],[-119.082471,34.293858],[-119.082514,34.293873],[-119.082558,34.293883],[-119.082645,34.293898],[-119.08273,34.293919],[-119.082814,34.293945],[-119.082896,34.293978],[-119.082975,34.294016],[-119.083052,34.294059],[-119.083125,34.294108],[-119.083194,34.294162],[-119.08326,34.29422],[-119.083322,34.294283],[-119.083378,34.29435],[-119.083431,34.294421],[-119.083761,34.294944],[-119.083775,34.29496],[-119.083792,34.294973],[-119.08381,34.294984],[-119.08383,34.294992],[-119.083851,34.294997],[-119.083872,34.294999],[-119.083893,34.294997],[-119.083914,34.294992],[-119.083933,34.294983],[-119.084223,34.294826],[-119.084245,34.294816],[-119.084269,34.29481],[-119.084293,34.294808],[-119.084318,34.294811],[-119.084341,34.294818],[-119.084363,34.294828],[-119.084383,34.294843],[-119.0844,34.29486],[-119.084504,34.295006],[-119.084594,34.295083],[-119.085001,34.295246],[-119.085397,34.29529],[-119.085759,34.295377],[-119.085898,34.295365],[-119.086038,34.295348],[-119.086176,34.295324],[-119.086313,34.295295],[-119.086448,34.295259],[-119.086582,34.295217],[-119.086714,34.295169],[-119.086843,34.295115],[-119.086895,34.295093],[-119.086949,34.295078],[-119.087004,34.29507],[-119.08706,34.295068],[-119.087115,34.295074],[-119.08717,34.295087],[-119.087222,34.295107],[-119.087272,34.295133],[-119.08733,34.295172],[-119.087391,34.295206],[-119.087456,34.295233],[-119.087523,34.295254],[-119.087592,34.295268],[-119.087661,34.295275],[-119.087731,34.295276],[-119.087801,34.29527],[-119.087862,34.29526],[-119.087924,34.295255],[-119.087985,34.295253],[-119.08806,34.295257],[-119.088133,34.295267],[-119.088205,34.295283],[-119.088276,34.295306],[-119.088344,34.295335],[-119.088749,34.295531]]]},"properties":{"apn":"107012022"}},{"type":"Feature","geometry":{"type":"Polygon","coordinates":[[[-119.060767,34.299256],[-119.060749,34.301669],[-119.062073,34.301621],[-119.063572,34.301566],[-119.065547,34.30149],[-119.065556,34.300149],[-119.065571,34.297711],[-119.060777,34.298013],[-119.060767,34.299256]]]},"properties":{"apn":"107013004"}},{"type":"Feature","geometry":{"type":"Polygon","coordinates":[[[-119.043309,34.305199],[-119.060721,34.305303],[-119.06073,34.304142],[-119.060749,34.301669],[-119.060767,34.299256],[-119.056415,34.29923],[-119.056397,34.301643],[-119.04739,34.301589],[-119.046684,34.302682],[-119.045262,34.304885],[-119.042926,34.305197],[-119.043309,34.305199]]]},"properties":{"apn":"107013007"}},{"type":"Feature","geometry":{"type":"Polygon","coordinates":[[[-119.04739,34.301589],[-119.056397,34.301643],[-119.056415,34.29923],[-119.060767,34.299256],[-119.060777,34.298013],[-119.060783,34.297216],[-119.060793,34.295915],[-119.060799,34.295157],[-119.060807,34.294143],[-119.052238,34.295703],[-119.052089,34.295617],[-119.052071,34.297962],[-119.049742,34.297948],[-119.048626,34.299676],[-119.04739,34.301589]]]},"properties":{"apn":"107013008"}},{"type":"Feature","geometry":{"type":"Polygon","coordinates":[[[-119.049742,34.297948],[-119.052071,34.297962],[-119.052089,34.295617],[-119.051475,34.295263],[-119.051031,34.295951],[-119.049742,34.297948]]]},"properties":{"apn":"107013009"}},{"type":"Feature","geometry":{"type":"Polygon","coordinates":[[[-119.079591,34.297415],[-119.079968,34.297471],[-119.079968,34.296585],[-119.079973,34.291096],[-119.079973,34.290648],[-119.079287,34.290773],[-119.073936,34.291751],[-119.074407,34.293509],[-119.075602,34.293474],[-119.076684,34.295178],[-119.077955,34.297173],[-119.079591,34.297415]]]},"properties":{"apn":"107013014"}},{"type":"Feature","geometry":{"type":"Polygon","coordinates":[[[-119.060793,34.295915],[-119.060783,34.297216],[-119.068852,34.296944],[-119.069071,34.296266],[-119.069072,34.294892],[-119.067981,34.293514],[-119.067092,34.293146],[-119.067059,34.293005],[-119.064172,34.293531],[-119.063836,34.294261],[-119.063923,34.294907],[-119.063182,34.295146],[-119.060793,34.295915]]]},"properties":{"apn":"107013019"}},{"type":"Feature","geometry":{"type":"Polygon","coordinates":[[[-119.065556,34.300149],[-119.065547,34.30149],[-119.067316,34.301421],[-119.068002,34.301395],[-119.068384,34.298389],[-119.068852,34.296944],[-119.060783,34.297216],[-119.060777,34.298013],[-119.065571,34.297711],[-119.065556,34.300149]]]},"properties":{"apn":"107013020"}},{"type":"Feature","geometry":{"type":"Polygon","coordinates":[[[-119.062845,34.294425],[-119.063182,34.295146],[-119.063923,34.294907],[-119.063836,34.294261],[-119.064172,34.293531],[-119.064399,34.293035],[-119.062577,34.293346],[-119.062769,34.294119],[-119.062845,34.294425]]]},"properties":{"apn":"107013022"}},{"type":"Feature","geometry":{"type":"Polygon","coordinates":[[[-119.060799,34.295157],[-119.060793,34.295915],[-119.063182,34.295146],[-119.062845,34.294425],[-119.062769,34.294119],[-119.062088,34.294235],[-119.061418,34.295051],[-119.060799,34.295157]]]},"properties":{"apn":"107013023"}},{"type":"Feature","geometry":{"type":"Polygon","coordinates":[[[-119.060807,34.294143],[-119.060799,34.295157],[-119.061418,34.295051],[-119.062088,34.294235],[-119.062769,34.294119],[-119.062577,34.293346],[-119.061824,34.293475],[-119.061127,34.293594],[-119.06081,34.293648],[-119.060807,34.294143]]]},"properties":{"apn":"107013024"}},{"type":"Feature","geometry":{"type":"Polygon","coordinates":[[[-119.070394,34.301308],[-119.070374,34.304915],[-119.079946,34.304531],[-119.079963,34.304531],[-119.079966,34.299166],[-119.079968,34.297474],[-119.079968,34.297471],[-119.079591,34.297415],[-119.077955,34.297173],[-119.076684,34.295178],[-119.075602,34.293474],[-119.074407,34.293509],[-119.073936,34.291751],[-119.069081,34.292637],[-119.068839,34.292276],[-119.066965,34.292597],[-119.067059,34.293005],[-119.067092,34.293146],[-119.067981,34.293514],[-119.069072,34.294892],[-119.069071,34.296266],[-119.068852,34.296944],[-119.068384,34.298389],[-119.068002,34.301395],[-119.068241,34.301386],[-119.068929,34.301361],[-119.070394,34.301308]]]},"properties":{"apn":"107013025"}},{"type":"Feature","geometry":{"type":"Polygon","coordinates":[[[-119.085873,34.288223],[-119.086729,34.289412],[-119.089541,34.288898],[-119.090933,34.288643],[-119.090565,34.287727],[-119.089467,34.284995],[-119.090319,34.281884],[-119.091509,34.280698],[-119.092089,34.278236],[-119.092256,34.2766],[-119.092259,34.276571],[-119.086711,34.278986],[-119.085466,34.279532],[-119.085672,34.279858],[-119.08521,34.280059],[-119.085004,34.279732],[-119.083279,34.280482],[-119.08332,34.283643],[-119.084065,34.286012],[-119.085249,34.286192],[-119.085704,34.287016],[-119.085873,34.288223]],[[-119.086446,34.281831],[-119.086424,34.281848],[-119.086399,34.281861],[-119.086373,34.281869],[-119.086346,34.281873],[-119.086318,34.281873],[-119.086291,34.281869],[-119.086264,34.28186],[-119.08624,34.281847],[-119.086218,34.28183],[-119.086199,34.28181],[-119.086184,34.281787],[-119.086172,34.281762],[-119.086164,34.281735],[-119.086168,34.281711],[-119.086176,34.281689],[-119.086187,34.281667],[-119.086202,34.281648],[-119.086219,34.281631],[-119.086239,34.281617],[-119.08626,34.281607],[-119.086283,34.281599],[-119.086307,34.281596],[-119.086331,34.281596],[-119.086354,34.281594],[-119.086378,34.281596],[-119.086401,34.281601],[-119.086422,34.281611],[-119.086442,34.281624],[-119.086458,34.281641],[-119.086472,34.28166],[-119.086483,34.281681],[-119.086489,34.281703],[-119.086492,34.281727],[-119.08649,34.28175],[-119.086485,34.281773],[-119.086475,34.281795],[-119.086462,34.281814],[-119.086446,34.281831]]]},"properties":{"apn":"109003102"}},{"type":"Feature","geometry":{"type":"Polygon","coordinates":[[[-119.079117,34.288932],[-119.079287,34.290773],[-119.079973,34.290648],[-119.086729,34.289412],[-119.085873,34.288223],[-119.085704,34.287016],[-119.085249,34.286192],[-119.084065,34.286012],[-119.08332,34.283643],[-119.083279,34.280482],[-119.076801,34.283299],[-119.077381,34.285638],[-119.079117,34.288932]]]},"properties":{"apn":"109003103"}},{"type":"Feature","geometry":{"type":"Polygon","coordinates":[[[-119.085004,34.279732],[-119.08521,34.280059],[-119.085672,34.279858],[-119.085466,34.279532],[-119.085004,34.279732]]]},"properties":{"apn":"109003104"}},{"type":"Feature","geometry":{"type":"Polygon","coordinates":[[[-119.076823,34.281124],[-119.076829,34.283132],[-119.081108,34.281271],[-119.081102,34.278739],[-119.079709,34.278918],[-119.079107,34.279024],[-119.07839,34.279188],[-119.07682,34.279902],[-119.076823,34.281124]]]},"properties":{"apn":"109003204"}},{"type":"Feature","geometry":{"type":"Polygon","coordinates":[[[-119.076808,34.276033],[-119.07682,34.279902],[-119.07839,34.279188],[-119.079107,34.279024],[-119.079709,34.278918],[-119.081102,34.278739],[-119.081095,34.276024],[-119.076808,34.276033]]]},"properties":{"apn":"109003205"}},{"type":"Feature","geometry":{"type":"Polygon","coordinates":[[[-119.076808,34.276033],[-119.081095,34.276024],[-119.081088,34.272824],[-119.077861,34.272832],[-119.076802,34.272835],[-119.076808,34.276033]]]},"properties":{"apn":"109003212"}},{"type":"Feature","geometry":{"type":"Polygon","coordinates":[[[-119.08419,34.272822],[-119.085453,34.272819],[-119.08545,34.271638],[-119.085273,34.271717],[-119.084722,34.272257],[-119.084326,34.272676],[-119.08419,34.272822]]]},"properties":{"apn":"109003215"}},{"type":"Feature","geometry":{"type":"Polygon","coordinates":[[[-119.08398,34.27675],[-119.084023,34.280004],[-119.085474,34.279373],[-119.085459,34.274523],[-119.085453,34.272819],[-119.08419,34.272822],[-119.082556,34.274576],[-119.082176,34.274987],[-119.081861,34.275323],[-119.081379,34.275842],[-119.08139,34.276772],[-119.08398,34.27675]]]},"properties":{"apn":"109003216"}},{"type":"Feature","geometry":{"type":"Polygon","coordinates":[[[-119.081102,34.278739],[-119.081108,34.281271],[-119.084023,34.280004],[-119.08398,34.27675],[-119.08139,34.276772],[-119.081379,34.275842],[-119.081861,34.275323],[-119.082176,34.274987],[-119.082556,34.274576],[-119.08419,34.272822],[-119.081088,34.272824],[-119.081095,34.276024],[-119.081102,34.278739]]]},"properties":{"apn":"109003217"}},{"type":"Feature","geometry":{"type":"Polygon","coordinates":[[[-119.081077,34.269848],[-119.085444,34.269839],[-119.085424,34.263748],[-119.081056,34.263756],[-119.081073,34.268472],[-119.081077,34.269669],[-119.081077,34.269848]]]},"properties":{"apn":"109004205"}},{"type":"Feature","geometry":{"type":"Polygon","coordinates":[[[-119.081088,34.272824],[-119.08419,34.272822],[-119.084326,34.272676],[-119.084722,34.272257],[-119.085273,34.271717],[-119.08545,34.271638],[-119.085444,34.269839],[-119.081077,34.269848],[-119.081077,34.269848],[-119.081088,34.272824]]]},"properties":{"apn":"109004210"}},{"type":"Feature","geometry":{"type":"Polygon","coordinates":[[[-119.081056,34.263756],[-119.080405,34.263758],[-119.07677,34.263767],[-119.076786,34.268482],[-119.081073,34.268472],[-119.081056,34.263756]]]},"properties":{"apn":"109004212"}},{"type":"Feature","geometry":{"type":"Polygon","coordinates":[[[-119.076802,34.272835],[-119.077861,34.272832],[-119.081088,34.272824],[-119.081077,34.269848],[-119.081077,34.269848],[-119.081077,34.269669],[-119.081073,34.268472],[-119.076786,34.268482],[-119.076802,34.272835]]]},"properties":{"apn":"109004213"}},{"type":"Feature","geometry":{"type":"Polygon","coordinates":[[[-119.072311,34.26361],[-119.072685,34.263609],[-119.072682,34.263046],[-119.072646,34.254541],[-119.071974,34.25442],[-119.071999,34.263613],[-119.072311,34.26361]]]},"properties":{"apn":"109006104"}},{"type":"Feature","geometry":{"type":"Polygon","coordinates":[[[-119.070938,34.25439],[-119.070962,34.263625],[-119.071999,34.263613],[-119.071974,34.25442],[-119.071306,34.254299],[-119.070938,34.25439]]]},"properties":{"apn":"109006105"}},{"type":"Feature","geometry":{"type":"Polygon","coordinates":[[[-119.064366,34.263672],[-119.065893,34.263669],[-119.065891,34.262872],[-119.065873,34.255653],[-119.064652,34.255963],[-119.064492,34.256004],[-119.064468,34.256004],[-119.064346,34.256004],[-119.064347,34.256349],[-119.064366,34.263672]]]},"properties":{"apn":"109006107"}},{"type":"Feature","geometry":{"type":"Polygon","coordinates":[[[-119.060886,34.263678],[-119.064366,34.263672],[-119.064347,34.256349],[-119.060861,34.259257],[-119.060886,34.263678]]]},"properties":{"apn":"109006108"}},{"type":"Feature","geometry":{"type":"Polygon","coordinates":[[[-119.066521,34.263668],[-119.067299,34.263667],[-119.070962,34.263625],[-119.070938,34.25439],[-119.068638,34.254958],[-119.065873,34.255653],[-119.065891,34.262872],[-119.066519,34.262871],[-119.066521,34.263668]]]},"properties":{"apn":"109006113"}},{"type":"Feature","geometry":{"type":"Polygon","coordinates":[[[-119.065893,34.263669],[-119.066521,34.263668],[-119.066519,34.262871],[-119.065891,34.262872],[-119.065893,34.263669]]]},"properties":{"apn":"109006114"}},{"type":"Feature","geometry":{"type":"Polygon","coordinates":[[[-119.076686,34.263601],[-119.0804,34.263593],[-119.080371,34.254586],[-119.080339,34.254602],[-119.079923,34.254659],[-119.078997,34.254973],[-119.07805,34.255101],[-119.077938,34.255073],[-119.072682,34.263046],[-119.072685,34.263609],[-119.076686,34.263601]]]},"properties":{"apn":"109006118"}},{"type":"Feature","geometry":{"type":"Polygon","coordinates":[[[-119.072646,34.254541],[-119.072682,34.263046],[-119.077938,34.255073],[-119.077793,34.255038],[-119.07695,34.255229],[-119.076788,34.254735],[-119.075148,34.254993],[-119.072646,34.254541]]]},"properties":{"apn":"109006120"}},{"type":"Feature","geometry":{"type":"Polygon","coordinates":[[[-119.0804,34.263593],[-119.086303,34.263581],[-119.086272,34.25356],[-119.086267,34.252488],[-119.08589,34.252504],[-119.085415,34.252388],[-119.084434,34.252352],[-119.084383,34.25236],[-119.083435,34.253073],[-119.082119,34.253346],[-119.081834,34.253544],[-119.081773,34.2536],[-119.081415,34.253865],[-119.081152,34.254054],[-119.08082,34.254366],[-119.080371,34.254586],[-119.0804,34.263593]]]},"properties":{"apn":"109006126"}},{"type":"Feature","geometry":{"type":"Polygon","coordinates":[[[-119.043934,34.293144],[-119.044409,34.293149],[-119.045482,34.29308],[-119.046058,34.292214],[-119.046583,34.292206],[-119.047254,34.292078],[-119.04756,34.291906],[-119.047913,34.29157],[-119.048167,34.291446],[-119.048617,34.291347],[-119.049914,34.290902],[-119.050375,34.290477],[-119.050207,34.290106],[-119.0502,34.290088],[-119.050087,34.290089],[-119.034618,34.290109],[-119.034962,34.291854],[-119.035972,34.292059],[-119.03617,34.292075],[-119.036783,34.292102],[-119.03748,34.292242],[-119.037731,34.292241],[-119.037998,34.292474],[-119.038219,34.292626],[-119.038528,34.292464],[-119.038823,34.292398],[-119.039278,34.292562],[-119.039786,34.29244],[-119.040029,34.292562],[-119.040427,34.292312],[-119.040627,34.292279],[-119.041091,34.292394],[-119.041353,34.2925],[-119.04221,34.292776],[-119.043067,34.29294],[-119.043309,34.292993],[-119.043524,34.292997],[-119.043934,34.293144]]]},"properties":{"apn":"110001001"}},{"type":"Feature","geometry":{"type":"Polygon","coordinates":[[[-119.046058,34.292214],[-119.045482,34.29308],[-119.046703,34.293002],[-119.049171,34.292843],[-119.050751,34.291308],[-119.050375,34.290477],[-119.049914,34.290902],[-119.048617,34.291347],[-119.048167,34.291446],[-119.047913,34.29157],[-119.04756,34.291906],[-119.047254,34.292078],[-119.046583,34.292206],[-119.046058,34.292214]]]},"properties":{"apn":"110001002"}},{"type":"Feature","geometry":{"type":"Polygon","coordinates":[[[-119.030482,34.299609],[-119.03034,34.303637],[-119.033819,34.303167],[-119.037162,34.302715],[-119.040883,34.298501],[-119.042018,34.295697],[-119.04299,34.293295],[-119.043067,34.29294],[-119.04221,34.292776],[-119.041353,34.2925],[-119.041091,34.292394],[-119.040627,34.292279],[-119.040427,34.292312],[-119.040029,34.292562],[-119.039786,34.29244],[-119.039278,34.292562],[-119.038823,34.292398],[-119.038528,34.292464],[-119.038219,34.292626],[-119.037998,34.292474],[-119.037731,34.292241],[-119.03748,34.292242],[-119.036783,34.292102],[-119.03617,34.292075],[-119.035972,34.292059],[-119.034962,34.291854],[-119.034618,34.290109],[-119.034504,34.290109],[-119.034504,34.290061],[-119.03305,34.291269],[-119.033484,34.291113],[-119.033626,34.291386],[-119.032539,34.291775],[-119.031264,34.291893],[-119.030222,34.292603],[-119.030062,34.292441],[-119.029786,34.292703],[-119.02983,34.29479],[-119.030504,34.296304],[-119.031261,34.29735],[-119.031011,34.298418],[-119.030482,34.299609]]]},"properties":{"apn":"110001014"}},{"type":"Feature","geometry":{"type":"Polygon","coordinates":[[[-119.047758,34.295786],[-119.051031,34.295951],[-119.051475,34.295263],[-119.05149,34.29524],[-119.052491,34.29369],[-119.053217,34.292565],[-119.050662,34.290294],[-119.050605,34.29025],[-119.050546,34.290211],[-119.050482,34.290178],[-119.050416,34.290151],[-119.050348,34.290129],[-119.050278,34.290114],[-119.050207,34.290106],[-119.050375,34.290477],[-119.050751,34.291308],[-119.049171,34.292843],[-119.048755,34.293778],[-119.047339,34.294678],[-119.047758,34.295786]]]},"properties":{"apn":"110001015"}},{"type":"Feature","geometry":{"type":"Polygon","coordinates":[[[-119.046277,34.298666],[-119.048626,34.299676],[-119.049742,34.297948],[-119.051031,34.295951],[-119.047758,34.295786],[-119.047339,34.294678],[-119.048755,34.293778],[-119.049171,34.292843],[-119.046703,34.293002],[-119.046277,34.298666]]]},"properties":{"apn":"110001016"}},{"type":"Feature","geometry":{"type":"Polygon","coordinates":[[[-119.044271,34.297805],[-119.046277,34.298666],[-119.046703,34.293002],[-119.045482,34.29308],[-119.044409,34.293149],[-119.043934,34.293144],[-119.043524,34.292997],[-119.043309,34.292993],[-119.043067,34.29294],[-119.04299,34.293295],[-119.042018,34.295697],[-119.044479,34.296369],[-119.044266,34.296672],[-119.044271,34.297805]]]},"properties":{"apn":"110001017"}},{"type":"Feature","geometry":{"type":"Polygon","coordinates":[[[-119.042855,34.299947],[-119.046684,34.302682],[-119.04739,34.301589],[-119.048626,34.299676],[-119.046277,34.298666],[-119.044271,34.297805],[-119.043554,34.297442],[-119.042573,34.29777],[-119.042165,34.298335],[-119.042855,34.299947]]]},"properties":{"apn":"110001018"}},{"type":"Feature","geometry":{"type":"Polygon","coordinates":[[[-119.037162,34.302715],[-119.036857,34.303061],[-119.041723,34.302411],[-119.041623,34.302062],[-119.04183,34.2988],[-119.042165,34.298335],[-119.042573,34.29777],[-119.043554,34.297442],[-119.044271,34.297805],[-119.044266,34.296672],[-119.044479,34.296369],[-119.042018,34.295697],[-119.040883,34.298501],[-119.037162,34.302715]]]},"properties":{"apn":"110001019"}},{"type":"Feature","geometry":{"type":"Polygon","coordinates":[[[-119.041723,34.302411],[-119.042531,34.30525],[-119.042926,34.305197],[-119.045262,34.304885],[-119.046684,34.302682],[-119.042855,34.299947],[-119.042165,34.298335],[-119.04183,34.2988],[-119.041623,34.302062],[-119.041723,34.302411]]]},"properties":{"apn":"110001020"}},{"type":"Feature","geometry":{"type":"Polygon","coordinates":[[[-119.072707,34.268843],[-119.07662,34.268835],[-119.076604,34.263768],[-119.072686,34.263777],[-119.072707,34.268843]]]},"properties":{"apn":"110009101"}},{"type":"Feature","geometry":{"type":"Polygon","coordinates":[[[-119.068858,34.26885],[-119.072707,34.268843],[-119.072686,34.263777],[-119.0722,34.263778],[-119.068858,34.26885]]]},"properties":{"apn":"110009102"}},{"type":"Feature","geometry":{"type":"Polygon","coordinates":[[[-119.06759,34.270773],[-119.076626,34.270733],[-119.07662,34.268835],[-119.072707,34.268843],[-119.068858,34.26885],[-119.06759,34.270773]]]},"properties":{"apn":"110009103"}},{"type":"Feature","geometry":{"type":"Polygon","coordinates":[[[-119.066261,34.27279],[-119.076632,34.272768],[-119.076626,34.270733],[-119.06759,34.270773],[-119.066261,34.27279]]]},"properties":{"apn":"110009104"}},{"type":"Feature","geometry":{"type":"Polygon","coordinates":[[[-119.053217,34.292565],[-119.052491,34.29369],[-119.053496,34.293254],[-119.053927,34.293067],[-119.053973,34.293047],[-119.053907,34.293034],[-119.053843,34.293015],[-119.05378,34.292991],[-119.053719,34.292963],[-119.053661,34.292929],[-119.053617,34.292898],[-119.053575,34.292863],[-119.053225,34.292552],[-119.053217,34.292565]]]},"properties":{"apn":"110009210"}},{"type":"Feature","geometry":{"type":"Polygon","coordinates":[[[-119.053696,34.29277],[-119.05375,34.29281],[-119.053807,34.292844],[-119.053867,34.292873],[-119.05393,34.292895],[-119.053995,34.292911],[-119.054061,34.29292],[-119.054128,34.292923],[-119.054195,34.292919],[-119.054261,34.292908],[-119.054325,34.292891],[-119.054388,34.292868],[-119.056686,34.291872],[-119.055216,34.289536],[-119.053586,34.292006],[-119.053309,34.292426],[-119.053696,34.29277]]]},"properties":{"apn":"110009211"}},{"type":"Feature","geometry":{"type":"Polygon","coordinates":[[[-119.055216,34.289536],[-119.056686,34.291872],[-119.057761,34.291406],[-119.055917,34.288475],[-119.055216,34.289536]]]},"properties":{"apn":"110009213"}},{"type":"Feature","geometry":{"type":"Polygon","coordinates":[[[-119.062126,34.284144],[-119.068492,34.284135],[-119.068483,34.281586],[-119.06175,34.281612],[-119.061664,34.281612],[-119.061862,34.282145],[-119.062126,34.284144]]]},"properties":{"apn":"110009214"}},{"type":"Feature","geometry":{"type":"Polygon","coordinates":[[[-119.063259,34.286774],[-119.064649,34.287535],[-119.068497,34.285866],[-119.068492,34.284135],[-119.062126,34.284144],[-119.062452,34.286611],[-119.062484,34.286617],[-119.063259,34.286774]]]},"properties":{"apn":"110009215"}},{"type":"Feature","geometry":{"type":"Polygon","coordinates":[[[-119.064718,34.287573],[-119.065996,34.287836],[-119.068499,34.28675],[-119.068497,34.285866],[-119.064649,34.287535],[-119.064718,34.287573]]]},"properties":{"apn":"110009216"}},{"type":"Feature","geometry":{"type":"Polygon","coordinates":[[[-119.05782,34.288733],[-119.059128,34.290813],[-119.065996,34.287836],[-119.064718,34.287573],[-119.064649,34.287535],[-119.063259,34.286774],[-119.062484,34.286617],[-119.05782,34.288733]]]},"properties":{"apn":"110009217"}},{"type":"Feature","geometry":{"type":"MultiPolygon","coordinates":[[[[-119.06293,34.277844],[-119.062914,34.277868],[-119.062961,34.27837],[-119.062815,34.278682],[-119.063025,34.278685],[-119.063023,34.278815],[-119.063149,34.278544],[-119.063171,34.278489],[-119.063189,34.278432],[-119.063201,34.278374],[-119.063208,34.278314],[-119.063209,34.278255],[-119.063186,34.277454],[-119.06293,34.277844]]],[[[-119.063967,34.276557],[-119.063353,34.277488],[-119.063374,34.278252],[-119.063373,34.278322],[-119.063365,34.278392],[-119.06335,34.278461],[-119.06333,34.278528],[-119.063303,34.278593],[-119.063013,34.279218],[-119.068477,34.279207],[-119.068483,34.281586],[-119.068492,34.284135],[-119.068497,34.285866],[-119.068499,34.28675],[-119.076664,34.283203],[-119.076643,34.276254],[-119.071317,34.276266],[-119.064149,34.27628],[-119.063967,34.276557]]]]},"properties":{"apn":"110009219"}},{"type":"Feature","geometry":{"type":"Polygon","coordinates":[[[-119.062832,34.279218],[-119.062836,34.279218],[-119.063023,34.278815],[-119.063025,34.278685],[-119.062815,34.278682],[-119.062567,34.279216],[-119.062817,34.279218],[-119.062832,34.279218]]]},"properties":{"apn":"110009220"}},{"type":"Feature","geometry":{"type":"Polygon","coordinates":[[[-119.06175,34.281612],[-119.068483,34.281586],[-119.068477,34.279207],[-119.063013,34.279218],[-119.062836,34.279218],[-119.062832,34.279218],[-119.062649,34.279405],[-119.062237,34.279635],[-119.061632,34.281293],[-119.06175,34.281612]]]},"properties":{"apn":"110009221"}},{"type":"Feature","geometry":{"type":"Polygon","coordinates":[[[-119.062817,34.279218],[-119.062237,34.279635],[-119.062649,34.279405],[-119.062832,34.279218],[-119.062817,34.279218]]]},"properties":{"apn":"110009222"}},{"type":"Feature","geometry":{"type":"Polygon","coordinates":[[[-119.055917,34.288475],[-119.057761,34.291406],[-119.059128,34.290813],[-119.05782,34.288733],[-119.062484,34.286617],[-119.062452,34.286611],[-119.062126,34.284144],[-119.061862,34.282145],[-119.061664,34.281612],[-119.061577,34.281612],[-119.061459,34.281293],[-119.062093,34.279557],[-119.062125,34.279534],[-119.062019,34.279439],[-119.062271,34.279246],[-119.062331,34.279166],[-119.062587,34.27897],[-119.062632,34.278887],[-119.062637,34.27868],[-119.062815,34.278682],[-119.062961,34.27837],[-119.062914,34.277868],[-119.061716,34.279685],[-119.055917,34.288475]]]},"properties":{"apn":"110009223"}},{"type":"Feature","geometry":{"type":"Polygon","coordinates":[[[-119.062019,34.279439],[-119.062125,34.279534],[-119.062567,34.279216],[-119.062815,34.278682],[-119.062637,34.27868],[-119.062632,34.278887],[-119.062587,34.27897],[-119.062331,34.279166],[-119.062271,34.279246],[-119.062019,34.279439]]]},"properties":{"apn":"110009224"}},{"type":"Feature","geometry":{"type":"Polygon","coordinates":[[[-119.064149,34.27628],[-119.071317,34.276266],[-119.071307,34.272917],[-119.06636,34.272927],[-119.064149,34.27628]]]},"properties":{"apn":"110009225"}},{"type":"Feature","geometry":{"type":"Polygon","coordinates":[[[-119.071317,34.276266],[-119.076643,34.276254],[-119.076633,34.272906],[-119.071307,34.272917],[-119.071317,34.276266]]]},"properties":{"apn":"110009226"}},{"type":"Feature","geometry":{"type":"Polygon","coordinates":[[[-119.068839,34.292276],[-119.069081,34.292637],[-119.073936,34.291751],[-119.079287,34.290773],[-119.079117,34.288932],[-119.077381,34.285638],[-119.076801,34.283299],[-119.068574,34.286873],[-119.06612,34.287937],[-119.066905,34.288114],[-119.067554,34.28906],[-119.066477,34.290412],[-119.066286,34.291615],[-119.066263,34.291761],[-119.066781,34.29236],[-119.066965,34.292597],[-119.068839,34.292276]]]},"properties":{"apn":"110009301"}},{"type":"Feature","geometry":{"type":"Polygon","coordinates":[[[-119.064399,34.293035],[-119.064172,34.293531],[-119.067059,34.293005],[-119.066965,34.292597],[-119.066781,34.29236],[-119.066263,34.291761],[-119.066286,34.291615],[-119.065725,34.291742],[-119.064723,34.29197],[-119.064642,34.292465],[-119.064334,34.29292],[-119.064399,34.293035]]]},"properties":{"apn":"110010002"}},{"type":"Feature","geometry":{"type":"Polygon","coordinates":[[[-119.061916,34.292903],[-119.061824,34.293475],[-119.062577,34.293346],[-119.064399,34.293035],[-119.064334,34.29292],[-119.064208,34.292887],[-119.064056,34.292817],[-119.063502,34.292762],[-119.063396,34.292705],[-119.063054,34.292325],[-119.06283,34.291935],[-119.062552,34.291624],[-119.062179,34.291087],[-119.062074,34.290857],[-119.062006,34.2908],[-119.061867,34.290535],[-119.061876,34.290423],[-119.06163,34.289883],[-119.060641,34.290312],[-119.061027,34.291015],[-119.061087,34.291165],[-119.061155,34.291287],[-119.061226,34.291349],[-119.061358,34.291463],[-119.061485,34.291737],[-119.061285,34.292283],[-119.061394,34.292497],[-119.06168,34.292649],[-119.061916,34.292903]]]},"properties":{"apn":"110010014"}},{"type":"Feature","geometry":{"type":"Polygon","coordinates":[[[-119.064208,34.292887],[-119.064334,34.29292],[-119.064642,34.292465],[-119.064723,34.29197],[-119.064685,34.2918],[-119.064671,34.291751],[-119.064652,34.291704],[-119.064626,34.29166],[-119.064595,34.291619],[-119.064494,34.291499],[-119.064469,34.291465],[-119.064449,34.291428],[-119.064434,34.291389],[-119.064388,34.291246],[-119.064375,34.291212],[-119.064356,34.291181],[-119.064333,34.291152],[-119.064223,34.291035],[-119.064212,34.291022],[-119.064203,34.291008],[-119.064197,34.290993],[-119.064193,34.290977],[-119.064191,34.290961],[-119.064192,34.290945],[-119.064196,34.290929],[-119.064259,34.290767],[-119.064271,34.290727],[-119.064276,34.290685],[-119.064274,34.290644],[-119.064266,34.290603],[-119.064251,34.290564],[-119.064231,34.290528],[-119.064204,34.290495],[-119.064173,34.290467],[-119.063934,34.290269],[-119.063923,34.290259],[-119.063913,34.290248],[-119.063905,34.290235],[-119.0639,34.290221],[-119.063896,34.290206],[-119.063895,34.290192],[-119.063896,34.290177],[-119.0639,34.290162],[-119.063906,34.290148],[-119.063947,34.290091],[-119.064018,34.289995],[-119.06402,34.289992],[-119.064037,34.289965],[-119.06405,34.289936],[-119.064058,34.289906],[-119.064062,34.289874],[-119.064061,34.289843],[-119.064055,34.289811],[-119.064009,34.28964],[-119.064006,34.289615],[-119.064007,34.289589],[-119.064011,34.289564],[-119.064019,34.28954],[-119.06403,34.289517],[-119.064119,34.289395],[-119.064141,34.289357],[-119.064157,34.289315],[-119.064166,34.289272],[-119.064203,34.288969],[-119.064291,34.28873],[-119.06163,34.289883],[-119.061876,34.290423],[-119.061867,34.290535],[-119.062006,34.2908],[-119.062074,34.290857],[-119.062179,34.291087],[-119.062552,34.291624],[-119.06283,34.291935],[-119.063054,34.292325],[-119.063396,34.292705],[-119.063502,34.292762],[-119.064056,34.292817],[-119.064208,34.292887]]]},"properties":{"apn":"110010015"}},{"type":"Feature","geometry":{"type":"Polygon","coordinates":[[[-119.061023,34.29315],[-119.061127,34.293594],[-119.061824,34.293475],[-119.061916,34.292903],[-119.06168,34.292649],[-119.061394,34.292497],[-119.061285,34.292283],[-119.061485,34.291737],[-119.061358,34.291463],[-119.061226,34.291349],[-119.060177,34.291805],[-119.059859,34.290651],[-119.059782,34.290684],[-119.060101,34.291838],[-119.060671,34.292813],[-119.061023,34.29315]]]},"properties":{"apn":"110010016"}},{"type":"Feature","geometry":{"type":"Polygon","coordinates":[[[-119.059859,34.290651],[-119.060177,34.291805],[-119.061226,34.291349],[-119.061155,34.291287],[-119.061087,34.291165],[-119.061027,34.291015],[-119.060641,34.290312],[-119.059859,34.290651]]]},"properties":{"apn":"110010017"}},{"type":"Feature","geometry":{"type":"Polygon","coordinates":[[[-119.065008,34.290774],[-119.065725,34.291742],[-119.066286,34.291615],[-119.066477,34.290412],[-119.067554,34.28906],[-119.066911,34.289442],[-119.066365,34.289683],[-119.066125,34.289767],[-119.065738,34.290028],[-119.065419,34.290066],[-119.065226,34.289778],[-119.065008,34.290774]]]},"properties":{"apn":"110010021"}},{"type":"Feature","geometry":{"type":"Polygon","coordinates":[[[-119.065226,34.289778],[-119.065419,34.290066],[-119.065738,34.290028],[-119.066125,34.289767],[-119.066365,34.289683],[-119.066911,34.289442],[-119.067554,34.28906],[-119.066572,34.289488],[-119.065744,34.289508],[-119.065251,34.289668],[-119.065226,34.289778]]]},"properties":{"apn":"110010022"}},{"type":"Feature","geometry":{"type":"Polygon","coordinates":[[[-119.064685,34.2918],[-119.064723,34.29197],[-119.065725,34.291742],[-119.065008,34.290774],[-119.065226,34.289778],[-119.06517,34.289694],[-119.063947,34.290091],[-119.063906,34.290148],[-119.0639,34.290162],[-119.063896,34.290177],[-119.063895,34.290192],[-119.063896,34.290206],[-119.0639,34.290221],[-119.063905,34.290235],[-119.063913,34.290248],[-119.063923,34.290259],[-119.063934,34.290269],[-119.064173,34.290467],[-119.064204,34.290495],[-119.064231,34.290528],[-119.064251,34.290564],[-119.064266,34.290603],[-119.064274,34.290644],[-119.064276,34.290685],[-119.064271,34.290727],[-119.064259,34.290767],[-119.064196,34.290929],[-119.064192,34.290945],[-119.064191,34.290961],[-119.064193,34.290977],[-119.064197,34.290993],[-119.064203,34.291008],[-119.064212,34.291022],[-119.064223,34.291035],[-119.064333,34.291152],[-119.064356,34.291181],[-119.064375,34.291212],[-119.064388,34.291246],[-119.064434,34.291389],[-119.064449,34.291428],[-119.064469,34.291465],[-119.064494,34.291499],[-119.064595,34.291619],[-119.064626,34.29166],[-119.064652,34.291704],[-119.064671,34.291751],[-119.064685,34.2918]]]},"properties":{"apn":"110010023"}},{"type":"Feature","geometry":{"type":"Polygon","coordinates":[[[-119.06517,34.289694],[-119.065226,34.289778],[-119.065251,34.289668],[-119.06517,34.289694]]]},"properties":{"apn":"110010024"}},{"type":"Feature","geometry":{"type":"Polygon","coordinates":[[[-119.064055,34.289811],[-119.064061,34.289843],[-119.064062,34.289874],[-119.064058,34.289906],[-119.06405,34.289936],[-119.064037,34.289965],[-119.06402,34.289992],[-119.064217,34.28999],[-119.065055,34.289521],[-119.06517,34.289694],[-119.065251,34.289668],[-119.065744,34.289508],[-119.066572,34.289488],[-119.067554,34.28906],[-119.066905,34.288114],[-119.06612,34.287937],[-119.064291,34.28873],[-119.064203,34.288969],[-119.064166,34.289272],[-119.064157,34.289315],[-119.064141,34.289357],[-119.064119,34.289395],[-119.06403,34.289517],[-119.064019,34.28954],[-119.064011,34.289564],[-119.064007,34.289589],[-119.064006,34.289615],[-119.064009,34.28964],[-119.064055,34.289811]]]},"properties":{"apn":"110010025"}},{"type":"Feature","geometry":{"type":"Polygon","coordinates":[[[-119.064018,34.289995],[-119.063947,34.290091],[-119.06517,34.289694],[-119.065055,34.289521],[-119.064217,34.28999],[-119.06402,34.289992],[-119.064018,34.289995]]]},"properties":{"apn":"110010026"}},{"type":"Feature","geometry":{"type":"Polygon","coordinates":[[[-119.05785,34.29407],[-119.057879,34.294149],[-119.057958,34.294135],[-119.057928,34.294056],[-119.057889,34.294063],[-119.05785,34.29407]]]},"properties":{"apn":"110011001"}},{"type":"Feature","geometry":{"type":"Polygon","coordinates":[[[-119.056666,34.292066],[-119.057462,34.29422],[-119.057879,34.294149],[-119.05785,34.29407],[-119.057889,34.294063],[-119.057084,34.291885],[-119.056785,34.292015],[-119.056666,34.292066]]]},"properties":{"apn":"110011003"}},{"type":"Feature","geometry":{"type":"Polygon","coordinates":[[[-119.056248,34.292247],[-119.057006,34.294298],[-119.057462,34.29422],[-119.056666,34.292066],[-119.056248,34.292247]]]},"properties":{"apn":"110011004"}},{"type":"Feature","geometry":{"type":"Polygon","coordinates":[[[-119.05583,34.292429],[-119.05655,34.294376],[-119.057006,34.294298],[-119.056248,34.292247],[-119.05583,34.292429]]]},"properties":{"apn":"110011005"}},{"type":"Feature","geometry":{"type":"Polygon","coordinates":[[[-119.055983,34.294155],[-119.056094,34.294454],[-119.05655,34.294376],[-119.05583,34.292429],[-119.055412,34.29261],[-119.055983,34.294155]]]},"properties":{"apn":"110011006"}},{"type":"Feature","geometry":{"type":"Polygon","coordinates":[[[-119.054868,34.292846],[-119.05554,34.294548],[-119.056094,34.294454],[-119.055983,34.294155],[-119.055412,34.29261],[-119.054868,34.292846]]]},"properties":{"apn":"110011007"}},{"type":"Feature","geometry":{"type":"Polygon","coordinates":[[[-119.054743,34.293931],[-119.055005,34.29464],[-119.05554,34.294548],[-119.054868,34.292846],[-119.05448,34.293014],[-119.054413,34.293039],[-119.054743,34.293931]]]},"properties":{"apn":"110011008"}},{"type":"Feature","geometry":{"type":"Polygon","coordinates":[[[-119.058684,34.29117],[-119.058714,34.291218],[-119.058787,34.291187],[-119.058756,34.291138],[-119.058684,34.29117]]]},"properties":{"apn":"110011013"}},{"type":"Feature","geometry":{"type":"Polygon","coordinates":[[[-119.058773,34.29191],[-119.059498,34.293872],[-119.06081,34.293648],[-119.061127,34.293594],[-119.061023,34.29315],[-119.060671,34.292813],[-119.060101,34.291838],[-119.059782,34.290684],[-119.059205,34.290934],[-119.058824,34.2911],[-119.05886,34.291154],[-119.05878,34.291742],[-119.058836,34.291894],[-119.058773,34.29191]]]},"properties":{"apn":"110011014"}},{"type":"Feature","geometry":{"type":"Polygon","coordinates":[[[-119.058238,34.291354],[-119.059189,34.293925],[-119.059498,34.293872],[-119.058773,34.29191],[-119.058836,34.291894],[-119.05878,34.291742],[-119.05886,34.291154],[-119.058824,34.2911],[-119.058238,34.291354]],[[-119.058787,34.291187],[-119.058714,34.291218],[-119.058684,34.29117],[-119.058756,34.291138],[-119.058787,34.291187]]]},"properties":{"apn":"110011015"}},{"type":"Feature","geometry":{"type":"Polygon","coordinates":[[[-119.057939,34.291483],[-119.058863,34.293981],[-119.059189,34.293925],[-119.058238,34.291354],[-119.057939,34.291483]]]},"properties":{"apn":"110011016"}},{"type":"Feature","geometry":{"type":"Polygon","coordinates":[[[-119.057651,34.291639],[-119.058537,34.294036],[-119.058863,34.293981],[-119.057939,34.291483],[-119.057641,34.291613],[-119.057651,34.291639]]]},"properties":{"apn":"110011017"}},{"type":"Feature","geometry":{"type":"Polygon","coordinates":[[[-119.052089,34.295617],[-119.052238,34.295703],[-119.060807,34.294143],[-119.06081,34.293648],[-119.059498,34.293872],[-119.059189,34.293925],[-119.058863,34.293981],[-119.058537,34.294036],[-119.058374,34.294064],[-119.057958,34.294135],[-119.057879,34.294149],[-119.057462,34.29422],[-119.057006,34.294298],[-119.05655,34.294376],[-119.056094,34.294454],[-119.05554,34.294548],[-119.055005,34.29464],[-119.053887,34.294831],[-119.05149,34.29524],[-119.051475,34.295263],[-119.052089,34.295617]]]},"properties":{"apn":"110011018"}},{"type":"Feature","geometry":{"type":"Polygon","coordinates":[[[-119.052491,34.29369],[-119.05149,34.29524],[-119.053887,34.294831],[-119.053707,34.294108],[-119.053496,34.293254],[-119.052491,34.29369]]]},"properties":{"apn":"110011019"}},{"type":"Feature","geometry":{"type":"Polygon","coordinates":[[[-119.053707,34.294108],[-119.053887,34.294831],[-119.055005,34.29464],[-119.054743,34.293931],[-119.053707,34.294108]]]},"properties":{"apn":"110011020"}},{"type":"Feature","geometry":{"type":"Polygon","coordinates":[[[-119.053496,34.293254],[-119.053707,34.294108],[-119.054743,34.293931],[-119.054413,34.293039],[-119.054345,34.293059],[-119.054277,34.293074],[-119.054207,34.293083],[-119.054137,34.293087],[-119.054067,34.293086],[-119.053997,34.293079],[-119.053927,34.293067],[-119.053496,34.293254]]]},"properties":{"apn":"110011021"}},{"type":"Feature","geometry":{"type":"Polygon","coordinates":[[[-119.057502,34.291704],[-119.058374,34.294064],[-119.058537,34.294036],[-119.057651,34.291639],[-119.057502,34.291704]]]},"properties":{"apn":"110011022"}},{"type":"Feature","geometry":{"type":"Polygon","coordinates":[[[-119.057928,34.294056],[-119.057958,34.294135],[-119.058374,34.294064],[-119.057502,34.291704],[-119.057084,34.291885],[-119.057889,34.294063],[-119.057928,34.294056]]]},"properties":{"apn":"110011023"}},{"type":"Feature","geometry":{"type":"Polygon","coordinates":[[[-119.050693,34.285642],[-119.055233,34.285636],[-119.055259,34.285586],[-119.056067,34.284193],[-119.058523,34.281909],[-119.058965,34.281231],[-119.050187,34.281227],[-119.050197,34.285595],[-119.050693,34.285596],[-119.050693,34.285642]]]},"properties":{"apn":"110012001"}},{"type":"Feature","geometry":{"type":"Polygon","coordinates":[[[-119.050162,34.268168],[-119.05644,34.268183],[-119.055179,34.267315],[-119.055122,34.267277],[-119.05507,34.267233],[-119.055022,34.267184],[-119.054979,34.26713],[-119.054942,34.267072],[-119.054911,34.267011],[-119.054886,34.266947],[-119.054868,34.266881],[-119.054857,34.266813],[-119.054853,34.266744],[-119.054856,34.266676],[-119.054865,34.266608],[-119.054882,34.266541],[-119.054905,34.266476],[-119.054935,34.266415],[-119.054944,34.263842],[-119.052988,34.263833],[-119.050154,34.263837],[-119.050162,34.268168]]]},"properties":{"apn":"110012003"}},{"type":"Feature","geometry":{"type":"Polygon","coordinates":[[[-119.058905,34.272497],[-119.059473,34.272497],[-119.059452,34.263836],[-119.05745,34.263827],[-119.05745,34.264266],[-119.057303,34.264266],[-119.057311,34.268185],[-119.057101,34.270661],[-119.056822,34.271017],[-119.056836,34.271198],[-119.05717,34.271665],[-119.058905,34.272497]]]},"properties":{"apn":"110012005"}},{"type":"Feature","geometry":{"type":"Polygon","coordinates":[[[-119.059473,34.272497],[-119.064284,34.272501],[-119.064675,34.271819],[-119.06471,34.270802],[-119.064728,34.270303],[-119.064886,34.269041],[-119.064927,34.268875],[-119.065223,34.267685],[-119.065213,34.263835],[-119.060887,34.263843],[-119.060801,34.263843],[-119.059452,34.263836],[-119.059473,34.272497]]]},"properties":{"apn":"110012006"}},{"type":"Feature","geometry":{"type":"Polygon","coordinates":[[[-119.064728,34.270303],[-119.06471,34.270802],[-119.06759,34.270773],[-119.068858,34.26885],[-119.064927,34.268875],[-119.064886,34.269041],[-119.064728,34.270303]]]},"properties":{"apn":"110012008"}},{"type":"Feature","geometry":{"type":"Polygon","coordinates":[[[-119.050171,34.272522],[-119.057376,34.272552],[-119.058977,34.272531],[-119.058905,34.272497],[-119.05717,34.271665],[-119.056836,34.271198],[-119.056822,34.271017],[-119.057101,34.270661],[-119.057311,34.268185],[-119.05644,34.268183],[-119.050162,34.268168],[-119.050171,34.272522]]]},"properties":{"apn":"110012013"}},{"type":"Feature","geometry":{"type":"Polygon","coordinates":[[[-119.05644,34.268183],[-119.057311,34.268185],[-119.057303,34.264266],[-119.05745,34.264266],[-119.05745,34.263827],[-119.057302,34.263826],[-119.057302,34.263854],[-119.054944,34.263842],[-119.054935,34.266415],[-119.054905,34.266476],[-119.054882,34.266541],[-119.054865,34.266608],[-119.054856,34.266676],[-119.054853,34.266744],[-119.054857,34.266813],[-119.054868,34.266881],[-119.054886,34.266947],[-119.054911,34.267011],[-119.054942,34.267072],[-119.054979,34.26713],[-119.055022,34.267184],[-119.05507,34.267233],[-119.055122,34.267277],[-119.055179,34.267315],[-119.05644,34.268183]]]},"properties":{"apn":"110012015"}},{"type":"Feature","geometry":{"type":"Polygon","coordinates":[[[-119.064927,34.268875],[-119.068858,34.26885],[-119.0722,34.263778],[-119.071994,34.26378],[-119.0673,34.263832],[-119.065888,34.263834],[-119.065213,34.263835],[-119.065223,34.267685],[-119.064927,34.268875]],[[-119.071131,34.264323],[-119.07114,34.265007],[-119.070561,34.265012],[-119.070552,34.264328],[-119.071131,34.264323]]]},"properties":{"apn":"110012016"}},{"type":"Feature","geometry":{"type":"Polygon","coordinates":[[[-119.070561,34.265012],[-119.07114,34.265007],[-119.071131,34.264323],[-119.070552,34.264328],[-119.070561,34.265012]]]},"properties":{"apn":"110012017"}},{"type":"Feature","geometry":{"type":"Polygon","coordinates":[[[-119.05439,34.289918],[-119.053586,34.292006],[-119.055216,34.289536],[-119.055917,34.288475],[-119.061716,34.279685],[-119.062914,34.277868],[-119.063139,34.277026],[-119.063077,34.276487],[-119.063529,34.275465],[-119.063497,34.27517],[-119.063469,34.275173],[-119.063191,34.274788],[-119.063124,34.27438],[-119.063241,34.274172],[-119.063388,34.274156],[-119.063359,34.273894],[-119.063571,34.273456],[-119.063948,34.273089],[-119.064118,34.272791],[-119.064284,34.272501],[-119.059473,34.272497],[-119.058905,34.272497],[-119.058977,34.272531],[-119.060353,34.274535],[-119.060307,34.274896],[-119.060911,34.276355],[-119.060788,34.276894],[-119.060277,34.279147],[-119.058965,34.281231],[-119.058523,34.281909],[-119.056067,34.284193],[-119.055259,34.285586],[-119.055233,34.285636],[-119.054608,34.286818],[-119.054663,34.289206],[-119.05439,34.289918]]]},"properties":{"apn":"110012018"}},{"type":"Feature","geometry":{"type":"Polygon","coordinates":[[[-119.063191,34.274788],[-119.063469,34.275173],[-119.063497,34.27517],[-119.063535,34.275166],[-119.063713,34.274924],[-119.063617,34.274325],[-119.063438,34.274151],[-119.063388,34.274156],[-119.063241,34.274172],[-119.063124,34.27438],[-119.063191,34.274788]]]},"properties":{"apn":"110012020"}},{"type":"Feature","geometry":{"type":"Polygon","coordinates":[[[-119.050179,34.276883],[-119.060788,34.276894],[-119.060911,34.276355],[-119.060307,34.274896],[-119.060353,34.274535],[-119.058977,34.272531],[-119.057376,34.272552],[-119.050171,34.272522],[-119.050179,34.276883]]]},"properties":{"apn":"110012021"}},{"type":"Feature","geometry":{"type":"Polygon","coordinates":[[[-119.050187,34.281227],[-119.058965,34.281231],[-119.060277,34.279147],[-119.060788,34.276894],[-119.050179,34.276883],[-119.050187,34.281227]]]},"properties":{"apn":"110012022"}},{"type":"Feature","geometry":{"type":"Polygon","coordinates":[[[-119.064118,34.272791],[-119.066261,34.27279],[-119.06759,34.270773],[-119.06471,34.270802],[-119.064675,34.271819],[-119.064284,34.272501],[-119.064118,34.272791]]]},"properties":{"apn":"110012023"}},{"type":"Feature","geometry":{"type":"Polygon","coordinates":[[[-119.063139,34.277026],[-119.062914,34.277868],[-119.06293,34.277844],[-119.063186,34.277454],[-119.066261,34.27279],[-119.064118,34.272791],[-119.063948,34.273089],[-119.063571,34.273456],[-119.063359,34.273894],[-119.063388,34.274156],[-119.063438,34.274151],[-119.063617,34.274325],[-119.063713,34.274924],[-119.063535,34.275166],[-119.063497,34.27517],[-119.063529,34.275465],[-119.063077,34.276487],[-119.063139,34.277026]]]},"properties":{"apn":"110012025"}},{"type":"Feature","geometry":{"type":"Polygon","coordinates":[[[-119.050795,34.290191],[-119.053309,34.292426],[-119.053586,34.292006],[-119.05439,34.289918],[-119.050206,34.289954],[-119.050286,34.289962],[-119.050366,34.289976],[-119.050444,34.289997],[-119.05052,34.290024],[-119.050594,34.290057],[-119.050664,34.290096],[-119.050732,34.290141],[-119.050795,34.290191]]]},"properties":{"apn":"110013101"}},{"type":"Feature","geometry":{"type":"Polygon","coordinates":[[[-119.050206,34.289954],[-119.05439,34.289918],[-119.054663,34.289206],[-119.054608,34.286818],[-119.055233,34.285636],[-119.050693,34.285642],[-119.050693,34.285596],[-119.050197,34.285595],[-119.050206,34.289954]]]},"properties":{"apn":"110013102"}},{"type":"Feature","geometry":{"type":"Polygon","coordinates":[[[-119.043703,34.277058],[-119.043785,34.277058],[-119.043785,34.276989],[-119.043702,34.276989],[-119.043703,34.277058]]]},"properties":{"apn":"110013204"}},{"type":"Feature","geometry":{"type":"Polygon","coordinates":[[[-119.049228,34.281245],[-119.049989,34.281248],[-119.049981,34.276891],[-119.043604,34.276894],[-119.043646,34.280119],[-119.049228,34.281245]],[[-119.043785,34.276989],[-119.043785,34.277058],[-119.043703,34.277058],[-119.043702,34.276989],[-119.043785,34.276989]]]},"properties":{"apn":"110013215"}},{"type":"Feature","geometry":{"type":"Polygon","coordinates":[[[-119.042784,34.279945],[-119.043646,34.280119],[-119.043604,34.276894],[-119.041871,34.276894],[-119.042784,34.279945]]]},"properties":{"apn":"110013216"}},{"type":"Feature","geometry":{"type":"Polygon","coordinates":[[[-119.043661,34.281251],[-119.049228,34.281245],[-119.043646,34.280119],[-119.043661,34.281251]]]},"properties":{"apn":"110013223"}},{"type":"Feature","geometry":{"type":"Polygon","coordinates":[[[-119.034703,34.289971],[-119.050008,34.289951],[-119.049989,34.281248],[-119.049228,34.281245],[-119.043661,34.281251],[-119.043646,34.280119],[-119.042784,34.279945],[-119.041871,34.276894],[-119.040407,34.276895],[-119.034695,34.276896],[-119.034698,34.281491],[-119.034698,34.285542],[-119.034703,34.289971]]]},"properties":{"apn":"110013224"}},{"type":"Feature","geometry":{"type":"Polygon","coordinates":[[[-119.034695,34.276896],[-119.040407,34.276895],[-119.040217,34.276435],[-119.040756,34.275697],[-119.042577,34.274893],[-119.044531,34.27253],[-119.042259,34.272533],[-119.034725,34.272543],[-119.034691,34.272543],[-119.034694,34.275989],[-119.03537,34.275985],[-119.035371,34.276672],[-119.034695,34.276676],[-119.034695,34.276896]]]},"properties":{"apn":"110014102"}},{"type":"Feature","geometry":{"type":"Polygon","coordinates":[[[-119.034695,34.276676],[-119.035371,34.276672],[-119.03537,34.275985],[-119.034694,34.275989],[-119.034695,34.276676]]]},"properties":{"apn":"110014103"}},{"type":"Feature","geometry":{"type":"Polygon","coordinates":[[[-119.034725,34.272543],[-119.042259,34.272533],[-119.042257,34.271446],[-119.034724,34.271456],[-119.034725,34.272543]]]},"properties":{"apn":"110014104"}},{"type":"Feature","geometry":{"type":"Polygon","coordinates":[[[-119.038421,34.268184],[-119.039428,34.268183],[-119.039422,34.263823],[-119.038899,34.263823],[-119.038419,34.263824],[-119.038421,34.268184]]]},"properties":{"apn":"110014106"}},{"type":"Feature","geometry":{"type":"Polygon","coordinates":[[[-119.039428,34.268183],[-119.041215,34.268181],[-119.041208,34.263821],[-119.039422,34.263823],[-119.039428,34.268183]]]},"properties":{"apn":"110014107"}},{"type":"Feature","geometry":{"type":"Polygon","coordinates":[[[-119.041215,34.268181],[-119.042251,34.26818],[-119.042244,34.263819],[-119.041208,34.263821],[-119.041215,34.268181]]]},"properties":{"apn":"110014108"}},{"type":"Feature","geometry":{"type":"Polygon","coordinates":[[[-119.042259,34.272533],[-119.044531,34.27253],[-119.045369,34.271918],[-119.04536,34.263816],[-119.044947,34.263816],[-119.042244,34.263819],[-119.042251,34.26818],[-119.042257,34.271446],[-119.042259,34.272533]]]},"properties":{"apn":"110014109"}},{"type":"Feature","geometry":{"type":"Polygon","coordinates":[[[-119.04536,34.263816],[-119.045369,34.271918],[-119.045404,34.271893],[-119.045624,34.270754],[-119.04588,34.270481],[-119.046553,34.270078],[-119.047021,34.270082],[-119.047667,34.269796],[-119.048228,34.269431],[-119.048288,34.269027],[-119.048841,34.268572],[-119.049554,34.268168],[-119.049964,34.268168],[-119.049956,34.26381],[-119.047676,34.263813],[-119.04536,34.263816]]]},"properties":{"apn":"110014110"}},{"type":"Feature","geometry":{"type":"Polygon","coordinates":[[[-119.034724,34.271456],[-119.042257,34.271446],[-119.042251,34.26818],[-119.041215,34.268181],[-119.039428,34.268183],[-119.038421,34.268184],[-119.034723,34.268189],[-119.034724,34.271456]]]},"properties":{"apn":"110014111"}},{"type":"Feature","geometry":{"type":"Polygon","coordinates":[[[-119.034723,34.268189],[-119.038421,34.268184],[-119.038419,34.263824],[-119.038402,34.263824],[-119.034688,34.263826],[-119.03469,34.268189],[-119.034723,34.268189]]]},"properties":{"apn":"110014112"}},{"type":"Feature","geometry":{"type":"Polygon","coordinates":[[[-119.043604,34.276894],[-119.049981,34.276891],[-119.049965,34.268421],[-119.048643,34.269223],[-119.048228,34.269431],[-119.047667,34.269796],[-119.047021,34.270082],[-119.046553,34.270078],[-119.04588,34.270481],[-119.045624,34.270754],[-119.045404,34.271893],[-119.045369,34.271918],[-119.044531,34.27253],[-119.042577,34.274893],[-119.040756,34.275697],[-119.040217,34.276435],[-119.040407,34.276895],[-119.041871,34.276894],[-119.043604,34.276894]]]},"properties":{"apn":"110014113"}},{"type":"Feature","geometry":{"type":"Polygon","coordinates":[[[-119.048288,34.269027],[-119.048228,34.269431],[-119.048643,34.269223],[-119.049965,34.268421],[-119.049964,34.268168],[-119.049554,34.268168],[-119.048841,34.268572],[-119.048288,34.269027]]]},"properties":{"apn":"110014114"}},{"type":"Feature","geometry":{"type":"Polygon","coordinates":[[[-119.05997,34.263674],[-119.060706,34.263677],[-119.060704,34.262861],[-119.059968,34.262858],[-119.05997,34.263674]]]},"properties":{"apn":"155027001"}},{"type":"Feature","geometry":{"type":"Polygon","coordinates":[[[-119.052991,34.26364],[-119.054228,34.263646],[-119.054218,34.258727],[-119.052371,34.258689],[-119.051367,34.258668],[-119.047669,34.260568],[-119.047675,34.263648],[-119.050047,34.263645],[-119.052991,34.26364]]]},"properties":{"apn":"155027003"}},{"type":"Feature","geometry":{"type":"Polygon","coordinates":[[[-119.047671,34.263648],[-119.047675,34.263648],[-119.047669,34.260568],[-119.047669,34.260351],[-119.044948,34.260354],[-119.044952,34.263651],[-119.047667,34.263648],[-119.047671,34.263648]]]},"properties":{"apn":"155027005"}},{"type":"Feature","geometry":{"type":"Polygon","coordinates":[[[-119.039375,34.263658],[-119.044952,34.263651],[-119.044948,34.260354],[-119.044948,34.260327],[-119.038923,34.260361],[-119.038926,34.263658],[-119.039176,34.263658],[-119.039176,34.263383],[-119.039375,34.263383],[-119.039375,34.263658]]]},"properties":{"apn":"155027007"}},{"type":"Feature","geometry":{"type":"Polygon","coordinates":[[[-119.039176,34.263658],[-119.039375,34.263658],[-119.039375,34.263383],[-119.039176,34.263383],[-119.039176,34.263658]]]},"properties":{"apn":"155027008"}},{"type":"Feature","geometry":{"type":"Polygon","coordinates":[[[-119.038402,34.263659],[-119.038926,34.263658],[-119.038923,34.260361],[-119.03892,34.257604],[-119.03531,34.257606],[-119.032112,34.257609],[-119.030171,34.25761],[-119.030177,34.263665],[-119.038402,34.263659]]]},"properties":{"apn":"155027021"}},{"type":"Feature","geometry":{"type":"Polygon","coordinates":[[[-119.054228,34.263646],[-119.05997,34.263674],[-119.059968,34.262858],[-119.060704,34.262861],[-119.060696,34.259722],[-119.060504,34.259934],[-119.060223,34.259758],[-119.060695,34.259236],[-119.060686,34.255783],[-119.060686,34.255732],[-119.06069,34.255685],[-119.060697,34.255638],[-119.060709,34.255592],[-119.060317,34.255592],[-119.057997,34.257213],[-119.054863,34.258744],[-119.054218,34.258727],[-119.054228,34.263646]]]},"properties":{"apn":"155027025"}}]}